CALSPHERE 1             
1 00900U 64063C   24156.97385944  .00001014  00000+0  10495-2 0  9991
2 00900  90.2052  55.1197 0027720  21.8496 350.7349 13.75054553969356
CALSPHERE 2             
1 00902U 64063E   24156.96334211  .00000050  00000+0  62265-4 0  9996
2 00902  90.2212  58.7206 0017084 217.4965 154.8853 13.52799909755916
LCS 1                   
1 01361U 65034C   24156.88252659  .00000017  00000+0  11537-2 0  9998
2 01361  32.1367 139.5078 0006048 350.0627   9.9750  9.89305816136378
TEMPSAT 1               
1 01512U 65065E   24156.95375453  .00000064  00000+0  10900-3 0  9992
2 01512  89.9553 214.1301 0070158 171.2953   4.6257 13.33516230861120
CALSPHERE 4A            
1 01520U 65065H   24156.97863596  .00000165  00000+0  29957-3 0  9997
2 01520  89.9454 128.1145 0070776  39.1214  29.3826 13.36068883863595
OPS 5712 (P/L 160)      
1 02826U 67053A   24156.93787757  .00009205  00000+0  19553-2 0  9990
2 02826  69.9266  34.0661 0001907  80.7992 279.3362 14.59335766957170
OPS 5712 (P/L 153)      
1 02874U 67053H   24156.55649734  .00000059  00000+0  80821-4 0  9999
2 02874  69.9743 266.8177 0004845  76.2421 283.9224 13.96591624903087
SURCAL 150B             
1 02909U 67053J   24156.89351857  .00023188  00000+0  29971-2 0  9996
2 02909  69.9404 340.5714 0003551 167.7717 192.3520 14.80876767969211
RIGIDSPHERE 2 (LCS 4)   
1 05398U 71067E   24157.19272830  .00001104  00000+0  36771-3 0  9999
2 05398  87.6280 184.5050 0062014 169.6447 190.6045 14.35766965767558
COSMOS 2493 (SKRL-756 1)
1 39490U 13078A   24157.15775882  .00004814  00000+0  44581-3 0  9997
2 39490  82.4166 263.1977 0014786 219.5578 140.4564 14.94236869567141
COSMOS 2494 (SKRL-756 2)
1 39491U 13078B   24157.23032638  .00005137  00000+0  45310-3 0  9992
2 39491  82.4168 255.1574 0019512 189.9509 170.1329 14.96097457567581
